STARLINK-4525           
1 53401C 22097P   26080.99284722  .00004218  00000+0  26437-3 0   802
2 53401  53.2157  68.8887 0001458  87.8854 213.8024 15.08851391    13
STARLINK-4499           
1 53402C 22097Q   26080.90673611  .00038943  00000+0  24432-2 0   807
2 53402  53.2164  69.2747 0001380  97.6432 196.1553 15.08801135    18
STARLINK-4507           
1 53403C 22097R   26080.86923611  .00041288  00000+0  25894-2 0   800
2 53403  53.2153  69.7875 0001230  88.2287 116.2334 15.08813305    14
STARLINK-4509           
1 53404C 22097S   26080.97131944  .00006690  00000+0  41935-3 0   806
2 53404  53.2166  58.9172 0001439  93.2791 281.2378 15.08848171    16
STARLINK-4510           
1 53405C 22097T   26080.90326389  .00040218  00000+0  25226-2 0   807
2 53405  53.2160  69.2895 0001569  99.8666 194.9514 15.08808817    10
STARLINK-4533           
1 53406C 22097U   26080.92340278  .00022613  00000+0  14175-2 0   803
2 53406  53.2170  59.1987 0002080  95.7261  83.5576 15.08839570    18
STARLINK-4491           
1 53408C 22097W   26080.87131944  .00037105  00000+0  23274-2 0   809
2 53408  53.2164  59.4378 0001054  79.5322 116.6801 15.08809923    16
STARLINK-4490           
1 53409C 22097X   26080.97409722 -.00005762  00000+0 -36118-3 0   801
2 53409  53.2160  49.1668 0001671  91.7037 337.9595 15.08857319    15
STARLINK-4492           
1 53410C 22097Y   26080.96437500  .00011081  00000+0  69475-3 0   808
2 53410  53.2168  59.0154 0001442  94.4151 267.5119 15.08840211    11
STARLINK-4497           
1 53411C 22097Z   26081.00326389 -.00009230  00000+0 -57885-3 0   815
2 53411  53.2164  58.8409 0001481  93.7619  79.5462 15.08837958    18
STARLINK-4496           
1 53412C 22097AA  26080.91159722  .00028705  00000+0  17995-2 0   802
2 53412  53.2171  59.2517 0001417  91.4540  43.6376 15.08833546    14
STARLINK-4500           
1 53413C 22097AB  26080.99493056 -.00003766  00000+0 -23630-3 0   808
2 53413  53.2170  58.8780 0001672  87.7309 100.3877 15.08815562    10
STARLINK-4304           
1 53414C 22097AC  26080.90673611  .00030204  00000+0  18934-2 0   802
2 53414  53.2166  59.2731 0001368  95.7567  32.8964 15.08834066    10
STARLINK-4479           
1 53415C 22097AD  26080.85048611  .00040968  00000+0  25686-2 0   803
2 53415  53.2160  59.5246 0001280  76.8110 126.1910 15.08823270    19
STARLINK-4480           
1 53416C 22097AE  26080.89006944  .00034442  00000+0  21598-2 0   809
2 53416  53.2151  59.2982 0001366  93.9266  44.2077 15.08821348    19
STARLINK-4484           
1 53417C 22097AF  26080.99006944 -.00002217  00000+0 -13904-3 0   801
2 53417  53.2162  58.8985 0001420  96.1659 165.4137 15.08841611    10
STARLINK-4481           
1 53418C 22097AG  26080.92062500  .00017573  00000+0  11016-2 0   805
2 53418  53.2159  48.7761 0001455  92.4789   6.9635 15.08840285    16
STARLINK-4476           
1 53419C 22097AH  26080.94493056  .00022028  00000+0  13810-2 0   807
2 53419  53.2159  59.1006 0001398  92.7968 303.4670 15.08836703    17
STARLINK-4552           
1 53420C 22097AJ  26080.86368056  .00047672  00000+0  29874-2 0   800
2 53420  53.2151  59.4673 0001448  91.2083 283.4060 15.08838421    11
STARLINK-4545           
1 53421C 22097AK  26080.95812500  .00011314  00000+0  70899-3 0   807
2 53421  53.2157  59.0419 0001621  79.5776  48.3769 15.08857019    11
STARLINK-4546           
1 53422C 22097AL  26080.89006944  .00031642  00000+0  19835-2 0   806
2 53422  53.2154  59.3495 0001427  92.7645 105.3643 15.08834366    17
STARLINK-4539           
1 53423C 22097AM  26080.89840278  .00030475  00000+0  19109-2 0   800
2 53423  53.2152  59.3195 0001384  91.6468  86.5501 15.08824883    12
STARLINK-4532           
1 53424C 22097AN  26080.86159722  .00043776  00000+0  27450-2 0   801
2 53424  53.2159  59.4780 0001438  81.1087   2.2210 15.08817323    15
STARLINK-4531           
1 53425C 22097AP  26080.89006944  .00031838  00000+0  19955-2 0   809
2 53425  53.2154  59.3488 0001430  95.4094  82.7039 15.08840599    16
STARLINK-4558           
1 53426C 22097AQ  26080.92270833  .00012696  00000+0  79605-3 0   804
2 53426  53.2160  49.3579 0001421  96.0111  74.3552 15.08834963    16
STARLINK-4543           
1 53429C 22097AT  26080.88381944  .00034881  00000+0  21867-2 0   804
2 53429  53.2161  49.4927 0001399  96.8104 242.2420 15.08831114    17
STARLINK-4538           
1 53430C 22097AU  26080.92965278  .00010872  00000+0  68194-3 0   808
2 53430  53.2167  49.2099 0001363 107.8236 160.2920 15.08824217    13
STARLINK-4548           
1 53431C 22097AV  26080.90951389  .00026838  00000+0  16817-2 0   808
2 53431  53.2160  48.8747 0001239  84.8809 294.0688 15.08851321    17
STARLINK-4557           
1 53432C 22097AW  26080.87618056  .00033479  00000+0  20984-2 0   805
2 53432  53.2168  49.1716 0001423  95.6340  22.1644 15.08838642    14
STARLINK-4549           
1 53433C 22097AX  26080.93104167  .00011802  00000+0  73991-3 0   809
2 53433  53.2170  49.1625 0001414  95.9669 199.8224 15.08840291    13
STARLINK-4498           
1 53434C 22097AY  26080.98868056  .00533160  00000+0  25706-1 0   804
2 53434  53.2182  48.2181 0001364  87.7295 155.4795 15.17933261    13
STARLINK-4542           
1 53435C 22097AZ  26080.94493056  .00008060  00000+0  50517-3 0   801
2 53435  53.2175  48.9025 0001490  91.5679  19.7602 15.08851013    12
STARLINK-4527           
1 53436C 22097BA  26080.94006944  .00009052  00000+0  56741-3 0   805
2 53436  53.2165  48.8068 0001499 100.9264  44.1396 15.08846642    16
STARLINK-4526           
1 53438C 22097BC  26081.00048611 -.00016373  00000+0 -10260-2 0   814
2 53438  53.2164  48.4973 0001505  89.8681  43.5770 15.08870957    19
STARLINK-4519           
1 53439C 22097BD  26080.89493056  .00026673  00000+0  16725-2 0   801
2 53439  53.2172  49.0944 0001323  95.6418 118.8267 15.08826953    19
STARLINK-4415           
1 53465C 22099A   26080.98729167 -.00134340  00000+0 -93419-2 0   805
2 53465  97.6030 203.3433 0000627 135.4093 244.5866 15.05665194    16
STARLINK-4398           
1 53466C 22099B   26080.89493056  .00150130  00000+0  10042-1 0   804
2 53466  97.6034 202.2125 0001447  85.4494 231.8801 15.06967657    15
STARLINK-4394           
1 53467C 22099C   26080.88868056  .00355530  00000+0  24283-1 0   803
2 53467  97.6026 203.3015 0001486 100.8315 135.3372 15.06086698    12
STARLINK-4400           
1 53468C 22099D   26080.99493056 -.00045027  00000+0 -31958-2 0   807
2 53468  97.6033 202.2717 0002037  80.3699 344.1187 15.04854848    10
STARLINK-4399           
1 53469C 22099E   26080.91715278 -.00043734  00000+0 -30383-2 0   807
2 53469  97.6032 203.2941 0001304 213.5517 236.4675 15.05655545    14
STARLINK-4393           
1 53470C 22099F   26080.86854167 -.00032923  00000+0 -25679-2 0   804
2 53470  97.6022 202.1333 0000609 104.0763 340.8120 15.01283265    19
STARLINK-4316           
1 53471C 22099G   26080.87548611 -.00016482  00000+0 -11451-2 0   805
2 53471  97.6032 203.2005 0001180 166.0041 313.3493 15.05641396    16
STARLINK-4447           
1 53472C 22099H   26080.94006944 -.00138980  00000+0 -10842-1 0   802
2 53472  97.6022 202.2033 0000577 103.7100  27.5309 15.01330954    10
STARLINK-4383           
1 53473C 22099J   26080.91090278 -.00040199  00000+0 -27922-2 0   805
2 53473  97.6037 203.3027 0001167  98.3371  32.8169 15.05659621    19
STARLINK-4445           
1 53474C 22099K   26080.86576389  .00481440  00000+0  34888-1 0   806
2 53474  97.6029 202.1323 0001711 104.4835  65.8085 15.03808969    18
STARLINK-4389           
1 53475C 22099L   26080.95951389  .00326990  00000+0  21068-1 0   808
2 53475  97.6040 202.2703 0001742  79.4769 308.1490 15.08258674    16
STARLINK-4378           
1 53476C 22099M   26080.90881944 -.00040503  00000+0 -28134-2 0   800
2 53476  97.6043 202.2302 0001643  85.2805  26.8636 15.05658543    13
STARLINK-4412           
1 53477C 22099N   26080.86576389  .00356800  00000+0  24228-1 0   807
2 53477  97.6034 202.1206 0001504  90.9701  19.4627 15.06302818    10
STARLINK-4433           
1 53478C 22099P   26080.89006944 -.00025384  00000+0 -19803-2 0   802
2 53478  97.6021 202.1643 0004611 190.0442  91.1308 15.01261602    11
STARLINK-4436           
1 53479C 22099Q   26080.87201389 -.00006412  00000+0 -44538-3 0   806
2 53479  97.6031 203.2989 0000379 212.5909 187.9004 15.05644308    12
STARLINK-4442           
1 53480C 22099R   26080.89423611  .00218510  00000+0  14290-1 0   806
2 53480  97.6039 203.2439 0001381  80.3557 241.4150 15.07765054    18
STARLINK-4302           
1 53481C 22099S   26080.96368056  .00309410  00000+0  21086-1 0   807
2 53481  97.6043 202.2513 0001641  79.9966 322.1642 15.06192971    17
STARLINK-4360           
1 53482C 22099T   26080.95604167  .00439240  00000+0  31363-1 0   807
2 53482  97.6042 202.2575 0001724  81.5905 293.5065 15.04385162    13
STARLINK-4426           
1 53484C 22099V   26080.91229167 -.00046097  00000+0 -32008-2 0   802
2 53484  97.6029 203.2411 0000657 215.1316 193.5526 15.05675585    18
STARLINK-4430           
1 53485C 22099W   26080.94215278  .00428490  00000+0  31323-1 0   801
2 53485  97.6042 202.2095 0001746  87.6088 183.8342 15.03506862    16
STARLINK-4431           
1 53486C 22099X   26080.88590278  .00411210  00000+0  26699-1 0   803
2 53486  97.6043 202.2025 0001629  81.4212 344.6561 15.07931991    11
STARLINK-4432           
1 53487C 22099Y   26080.96854167 -.00054291  00000+0 -37719-2 0   803
2 53487  97.6039 203.3196 0000797  94.8279   3.5656 15.05658681    10
STARLINK-4421           
1 53488C 22099Z   26080.94145833 -.00046518  00000+0 -32312-2 0   802
2 53488  97.6031 203.3574 0001065 179.8465 251.8135 15.05662789    17
STARLINK-4392           
1 53489C 22099AA  26080.88590278 -.00100450  00000+0 -78322-2 0   800
2 53489  97.6042 202.1306 0002286 166.3034 140.9905 15.01328762    18
